OBJECT_NAME,OBJECT_ID,EPOCH,MEAN_MOTION,ECCENTRICITY,INCLINATION,RA_OF_ASC_NODE,ARG_OF_PERICENTER,MEAN_ANOMALY,EPHEMERIS_TYPE,CLASSIFICATION_TYPE,NORAD_CAT_ID,ELEMENT_SET_NO,REV_AT_EPOCH,BSTAR,MEAN_MOTION_DOT,MEAN_MOTION_DDOT
STARLINK-11321 [DTC],2024-204D,2025-09-01T03:49:43.344480,15.69705897,.00015582,53.1590,210.8088,66.7285,293.3897,0,U,61877,999,4713,.7189265E-5,.282E-5,0
STARLINK-11314 [DTC],2024-204E,2025-09-01T03:42:39.430656,15.69702343,.00010969,53.1590,210.7767,94.8598,265.2546,0,U,61878,999,4714,.10741559E-4,.712E-5,0
STARLINK-11324 [DTC],2024-204F,2025-09-01T03:35:35.529792,15.69710195,.00014736,53.1594,210.7465,89.4763,270.6424,0,U,61879,999,4714,-.233044E-6,-.617E-5,0
STARLINK-11328 [DTC],2024-204G,2025-09-01T03:28:31.511424,15.69709098,.00010125,53.1578,210.7122,88.4830,271.6304,0,U,61880,999,4714,.5462808E-5,.73E-6,0
STARLINK-11329 [DTC],2024-204H,2025-09-01T04:53:08.753856,15.69707358,.00015133,53.1600,210.3642,71.7314,288.3869,0,U,61881,999,4715,.14410313E-4,.1157E-4,0
STARLINK-11398 [DTC],2024-204J,2025-09-01T04:46:04.602432,15.69711968,.00010266,53.1597,210.3311,90.5220,269.5915,0,U,61882,999,4715,.18674454E-4,.1675E-4,0
STARLINK-11383 [DTC],2024-204K,2025-09-01T04:31:56.388576,15.69717939,.00010244,53.1594,210.2651,84.8386,275.2748,0,U,61883,999,4715,.23241011E-4,.2229E-4,0
STARLINK-11359 [DTC],2024-204L,2025-09-01T04:39:00.370656,15.69724719,.00012008,53.1596,210.2979,105.7476,254.3675,0,U,61884,999,4715,.8080022E-5,.391E-5,0
STARLINK-11301 [DTC],2024-204M,2025-09-01T04:24:53.546112,15.69708445,.0001265,53.1591,210.2314,95.9428,264.1734,0,U,61885,999,4715,.9526546E-5,.565E-5,0
STARLINK-11351 [DTC],2024-204N,2025-09-01T04:17:49.424928,15.69713718,.00011204,53.1594,210.2002,87.8909,272.2237,0,U,61886,999,4715,.265456E-5,-.267E-5,0
STARLINK-32410,2024-204P,2025-08-31T20:30:31.185504,15.30183580,.00012991,53.1606,288.7971,90.9849,269.1301,0,U,61887,999,4603,.45732377E-4,.995E-5,0
STARLINK-32377,2024-204Q,2025-08-31T20:19:52.338720,15.30193050,.00013376,53.1601,288.7484,90.4989,269.6165,0,U,61888,999,4602,.36643617E-4,.726E-5,0
STARLINK-32292,2024-204R,2025-08-31T12:53:55.319712,15.30192140,.00012046,53.1595,290.3684,82.3431,277.7707,0,U,61889,999,4598,.20594616E-4,.251E-5,0
STARLINK-32501,2024-204S,2025-09-01T06:31:18.107904,15.30194930,.00011906,53.1581,287.1295,73.2154,286.8977,0,U,61890,999,4609,.58703355E-4,.138E-4,0
STARLINK-32383,2024-204T,2025-09-01T06:22:11.168256,15.30190785,.00015459,53.1586,287.0882,71.5853,288.5316,0,U,61891,999,4609,.27050373E-4,.442E-5,0
STARLINK-32239,2024-204U,2025-09-01T06:41:56.203872,15.30193069,.0001084,53.1599,287.1798,92.8387,267.2738,0,U,61892,999,4609,.75415939E-4,.1875E-4,0
STARLINK-32489,2024-204V,2025-09-01T07:04:34.188960,15.30193507,.000116,53.1587,286.5660,93.5240,266.5894,0,U,61893,999,4609,.52600326E-4,.1199E-4,0
2024-205A,2024-205A,2025-09-01T06:56:14.076384,15.15783555,.00228726,97.4463,316.4182,317.2852,42.6602,0,U,61894,999,4449,.84741545E-3,.16238E-3,0
2024-205B,2024-205B,2025-09-01T06:21:33.276672,15.22288874,.00110788,97.4442,318.4878,341.8802,18.2038,0,U,61895,999,4460,.74736324E-3,.17192E-3,0
2024-205C,2024-205C,2025-09-01T07:21:26.695872,15.15726855,.00218359,97.4452,316.3549,309.7945,50.1365,0,U,61896,999,4446,.77390314E-3,.14788E-3,0
2024-205D,2024-205D,2025-09-01T08:00:16.794144,15.14801253,.00123897,97.4437,317.0134,348.0355,12.0581,0,U,61897,999,4451,.56460264E-3,.10444E-3,0
2024-205E,2024-205E,2025-09-01T06:40:58.636416,15.15807244,.002629,97.4450,316.3766,317.7159,42.2047,0,U,61898,999,4446,.84610978E-3,.16259E-3,0
2024-205F,2024-205F,2025-09-01T07:01:07.724064,15.15303874,.00118937,97.4425,317.0208,265.6560,94.3314,0,U,61899,999,4451,.89572645E-3,.16857E-3,0
2024-205G,2024-205G,2025-09-01T06:23:04.191936,15.15582031,.00253509,97.4468,316.4545,323.0005,36.9479,0,U,61900,999,4446,.78431816E-3,.14958E-3,0
2024-205H,2024-205H,2025-09-01T07:43:11.826624,15.22779077,.00108848,97.4418,318.6333,346.2003,13.8934,0,U,61901,999,4462,.64347588E-3,.15003E-3,0
2024-205J,2024-205J,2025-09-01T06:16:30.075744,15.15845626,.00282661,97.4476,316.4955,326.0481,33.8942,0,U,61902,999,4446,.77566713E-3,.14933E-3,0
2024-205K,2024-205K,2025-09-01T07:17:36.586752,15.21287370,.00104571,97.4436,318.1234,344.6442,15.4475,0,U,61903,999,4458,.78533119E-3,.17543E-3,0
2024-205L,2024-205L,2025-09-01T07:04:51.111264,15.15964583,.00314803,97.4462,316.5635,322.0232,37.8780,0,U,61904,999,4447,.84223373E-3,.16319E-3,0
2024-205M,2024-205M,2025-09-01T07:26:47.783328,15.15323989,.00117508,97.4462,317.1608,357.3241,2.7927,0,U,61905,999,4451,.4220924E-3,.7903E-4,0
2024-205N,2024-205N,2025-09-01T06:17:52.326816,15.25034767,.001061,97.4458,319.3143,350.1332,9.9696,0,U,61906,999,4465,.82800338E-3,.2068E-3,0
