STARLINK-11321 [DTC]    
1 61877U 24204D   25244.15952945  .00000282  00000+0  71893-5 0  9992
2 61877  53.1590 210.8088 0001558  66.7285 293.3897 15.69705897 47137
STARLINK-11314 [DTC]    
1 61878U 24204E   25244.15462304  .00000712  00000+0  10742-4 0  9991
2 61878  53.1590 210.7767 0001096  94.8598 265.2546 15.69702343 47140
STARLINK-11324 [DTC]    
1 61879U 24204F   25244.14971678 -.00000617  00000+0 -23304-6 0  9996
2 61879  53.1594 210.7465 0001473  89.4763 270.6424 15.69710195 47142
STARLINK-11328 [DTC]    
1 61880U 24204G   25244.14480916  .00000073  00000+0  54628-5 0  9994
2 61880  53.1578 210.7122 0001012  88.4830 271.6304 15.69709098 47147
STARLINK-11329 [DTC]    
1 61881U 24204H   25244.20357354  .00001157  00000+0  14410-4 0  9999
2 61881  53.1600 210.3642 0001513  71.7314 288.3869 15.69707358 47154
STARLINK-11398 [DTC]    
1 61882U 24204J   25244.19866438  .00001675  00000+0  18674-4 0  9997
2 61882  53.1597 210.3311 0001026  90.5220 269.5915 15.69711968 47152
STARLINK-11383 [DTC]    
1 61883U 24204K   25244.18884709  .00002229  00000+0  23241-4 0  9990
2 61883  53.1594 210.2651 0001024  84.8386 275.2748 15.69717939 47155
STARLINK-11359 [DTC]    
1 61884U 24204L   25244.19375429  .00000391  00000+0  80800-5 0  9999
2 61884  53.1596 210.2979 0001200 105.7476 254.3675 15.69724719 47151
STARLINK-11301 [DTC]    
1 61885U 24204M   25244.18395308  .00000565  00000+0  95265-5 0  9991
2 61885  53.1591 210.2314 0001265  95.9428 264.1734 15.69708445 47151
STARLINK-11351 [DTC]    
1 61886U 24204N   25244.17904427 -.00000267  00000+0  26546-5 0  9995
2 61886  53.1594 210.2002 0001120  87.8909 272.2237 15.69713718 47150
STARLINK-32410          
1 61887U 24204P   25243.85452761  .00000995  00000+0  45732-4 0  9993
2 61887  53.1606 288.7971 0001299  90.9849 269.1301 15.30183580 46034
STARLINK-32377          
1 61888U 24204Q   25243.84713355  .00000726  00000+0  36644-4 0  9996
2 61888  53.1601 288.7484 0001337  90.4989 269.6165 15.30193050 46027
STARLINK-32292          
1 61889U 24204R   25243.53744583  .00000251  00000+0  20595-4 0  9991
2 61889  53.1595 290.3684 0001204  82.3431 277.7707 15.30192140 45981
STARLINK-32501          
1 61890U 24204S   25244.27173736  .00001380  00000+0  58703-4 0  9997
2 61890  53.1581 287.1295 0001190  73.2154 286.8977 15.30194930 46097
STARLINK-32383          
1 61891U 24204T   25244.26540704  .00000442  00000+0  27050-4 0  9999
2 61891  53.1586 287.0882 0001545  71.5853 288.5316 15.30190785 46095
STARLINK-32239          
1 61892U 24204U   25244.27912273  .00001875  00000+0  75416-4 0  9995
2 61892  53.1599 287.1798 0001084  92.8387 267.2738 15.30193069 46093
STARLINK-32489          
1 61893U 24204V   25244.29484015  .00001199  00000+0  52600-4 0  9995
2 61893  53.1587 286.5660 0001160  93.5240 266.5894 15.30193507 46095
2024-205A               
1 61894U 24205A   25244.28905181  .00016238  00000+0  84742-3 0  9999
2 61894  97.4463 316.4182 0022872 317.2852  42.6602 15.15783555 44493
2024-205B               
1 61895U 24205B   25244.26496848  .00017192  00000+0  74736-3 0  9995
2 61895  97.4442 318.4878 0011078 341.8802  18.2038 15.22288874 44606
2024-205C               
1 61896U 24205C   25244.30655898  .00014788  00000+0  77390-3 0  9990
2 61896  97.4452 316.3549 0021835 309.7945  50.1365 15.15726855 44463
2024-205D               
1 61897U 24205D   25244.33352771  .00010444  00000+0  56460-3 0  9998
2 61897  97.4437 317.0134 0012389 348.0355  12.0581 15.14801253 44518
2024-205E               
1 61898U 24205E   25244.27845644  .00016259  00000+0  84611-3 0  9997
2 61898  97.4450 316.3766 0026290 317.7159  42.2047 15.15807244 44461
2024-205F               
1 61899U 24205F   25244.29245051  .00016857  00000+0  89573-3 0  9992
2 61899  97.4425 317.0208 0011893 265.6560  94.3314 15.15303874 44514
2024-205G               
1 61900U 24205G   25244.26602074  .00014958  00000+0  78432-3 0  9996
2 61900  97.4468 316.4545 0025350 323.0005  36.9479 15.15582031 44469
2024-205H               
1 61901U 24205H   25244.32166466  .00015003  00000+0  64348-3 0  9997
2 61901  97.4418 318.6333 0010884 346.2003  13.8934 15.22779077 44629
2024-205J               
1 61902U 24205J   25244.26145921  .00014933  00000+0  77567-3 0  9992
2 61902  97.4476 316.4955 0028266 326.0481  33.8942 15.15845626 44468
2024-205K               
1 61903U 24205K   25244.30389568  .00017543  00000+0  78533-3 0  9999
2 61903  97.4436 318.1234 0010457 344.6442  15.4475 15.21287370 44583
2024-205L               
1 61904U 24205L   25244.29503601  .00016319  00000+0  84223-3 0  9997
2 61904  97.4462 316.5635 0031480 322.0232  37.8780 15.15964583 44472
2024-205M               
1 61905U 24205M   25244.31027527  .00007903  00000+0  42209-3 0  9996
2 61905  97.4462 317.1608 0011750 357.3241   2.7927 15.15323989 44517
2024-205N               
1 61906U 24205N   25244.26241119  .00020680  00000+0  82800-3 0  9994
2 61906  97.4458 319.3143 0010610 350.1332   9.9696 15.25034767 44658
